BusinessId,Business,Address1,Address2,City,County,State,Zip,PhonePrimary,URL,MailAddress,MailCity,MailState,MailZip,Email,Profiles,DateStamp,LastUpdated
4915320,Albemarle Farmers Market,Towncenter Lane,,Charlottesville,Albemarle,Virginia,22911,4345312733,,,Charlottesville,Virginia,,albemarlemarket@gmail.com,Farmers Market,Mar 10 2019 04:27:29:687AM,Jul  8 2020 10:25:35:000AM
419887,Alexandria Farmers Market,301 King Street,,Alexandria,Alexandria,Virginia,22314,7038384770,,,Alexandria,Virginia,,,Farmers Market,Mar 27 2009 10:40:37:420AM,May 21 2010 11:29:57:000AM
3624396,Amelia Barter Town Farmers' Market,Amelia County Fairgrounds,16501 Five Forks Rd,Amelia Court House,Amelia,Virginia,23002,8045612481,,,Amelia Court House,Virginia,,laurab08@vt.edu,Farmers Market,Oct 12 2015 05:25:31:083PM,Oct 12 2015 05:27:29:000PM
419896,Annandale Farmers Market,6621 Columbia Pike,,Annandale,Fairfax,Virginia,22003,7036420128,www.fairfaxcounty.gov/parks/farm-mkt.htm,,Annandale,Virginia,,,Farmers Market,Mar 27 2009 12:24:53:830PM,Jul  8 2020 10:27:11:000AM
4915190,Archwood Green Barns,P.O. Box 269,,The Plains,Fauquier,Virginia,20198,540-253-5289,,,The Plains,Virginia,,archwoodgreenbarn@gmail.com,Farmers Market,Mar 10 2019 04:24:18:567AM,Jul  8 2020 10:29:22:000AM
419910,Archwood Green Barns Farmers Market,Route 245 & I-66 (Exit 31),,The Plains,Fauquier,Virginia,20198,5402535289,,,The Plains,Virginia,,,Farmers Market,Mar 27 2009 01:47:21:813PM,May 24 2010 08:32:09:000AM
419889,Arlington Farmers' Market,N. Courthouse Rd. and N. 14th St.,,Arlington,Arlington,Virginia,22201,7032286423,www.arlingtonfarmersmarket.com,,Arlington,Virginia,,,Farmers Market,Mar 27 2009 10:51:00:320AM,May 21 2010 11:33:24:000AM
3624079,Ashburn Farmers Market,One Loudoun,North end of Exchange St.,Ashburn,Loudoun,Virginia,20147,5404548089,,,Ashburn,Virginia,,info@loudounfarmersmarkets.org,Farmers Market,Jul 23 2015 08:32:46:507AM,Jun  4 2020 12:55:04:000PM
419927,Basye Farmers Market,Route 263,,Basye,Shenandoah,Virginia,22816,5409848973,,,Basye,Virginia,,,Farmers Market,Mar 27 2009 03:55:28:580PM,May 24 2010 08:47:27:000AM
4916575,Blacksburg Farmers Market & Market Square Park,100 Draper Road,,Blacksburg,Montgomery,Virginia,24060,5402503335,http://blacksburgfarmersmarket.com/,,Blacksburg,Virginia,,bbfarmersmarket@gmail.com,Farmers Market,Apr  1 2020 05:50:49:593PM,May 26 2020 01:03:46:000PM
4913675,Blue Ridge Mountain Bounty LLC,P.O. Box 173,,Ivanhoe,Wythe,Virginia,24350,5404162762,http://www.brmbva.com,,Ivanhoe,Virginia,,catherine@brmbva.com,"Buyer, Farmers Market, Food Retailer",Jun 26 2017 08:47:07:147AM,Jun 26 2017 09:16:05:000AM
3624766,Botetourt Farmers Market,Daleville Town Center,90 Town Center Blvd,Daleville,Botetourt,Virginia,24083,5405563014,www.facebook.com/botetourtfarmersmarket,,Daleville,Virginia,,manager@botetourtfarmersmarket.org,Farmers Market,Feb  1 2016 10:04:13:223AM,Jul  8 2020 10:45:52:000AM
3624125,Bowling Green Community Farmers Market,117 Butler Street,P. O. Box 468,Bowling Green,Caroline,Virginia,22427,8046336212,,,Bowling Green,Virginia,,townmanager@townofbowlinggreen.com,Farmers Market,Jul 31 2015 03:05:48:393PM,Jul  8 2020 10:47:55:000AM
3624080,Brambleton Farmers Market,Emberbrook Circle,"Brambleton, VA",Ashburn,Loudoun,Virginia,20148,5404548089,,,Ashburn,Virginia,,info@loudounfarmersmarkets.org,Farmers Market,Jul 23 2015 08:41:27:960AM,Jul  8 2020 10:48:41:000AM
4916774,Bridgewater Farmers Market,412 North Main St.,,Bridgewater,Rockingham,Virginia,22812,5409084212,bridgewater.town,,Bridgewater,Virginia,,mbyler@bridgewater.town,"Farmers Market, Food Retailer",Apr 11 2020 02:35:09:250PM,Apr 16 2020 09:45:39:000AM
4913376,Broadway Farmers Market,161 S. Main Street,,Broadway,Rockingham,Virginia,22815,5404353426,www.town.broadway.va.us/farmers-market.html?fbclid=IwAR3LIj7dw-lNAAkHwRCT6PN4T3iUeWw18TMQynq,,Broadway,Virginia,,farmersmarket@town.broadway.va.us,Farmers Market,Mar 16 2017 10:54:06:397AM,Jul  8 2020 10:50:48:000AM
4916714,Bryce Resort Farmers Market,Bryce Resort Parking Lot,,Basye,Shenandoah,Virginia,22810,5403253768,,,Basye,Virginia,,luvscows@shentel.net,Farmers Market,Apr 11 2020 02:34:04:617PM,Apr 19 2020 08:21:25:000AM
4916570,Buckland Farm Market,4484 Lee Highway,,Warrenton,Fauquier,Virginia,20187,5713414739,Www.bucklandfarmmarket.com,,Warrenton,Virginia,,bucklandfarmmarket@gmail.com,Farmers Market,Apr  1 2020 11:37:05:093AM,Apr  1 2020 09:38:39:000AM
419898,Burke Farmers Market,5671 Roberts Pkwy.,,Burke,Fairfax,Virginia,22015,7036420128,www.fairfaxcounty.gov/parks/farm-mkt.htm,,Burke,Virginia,,,Farmers Market,Mar 27 2009 12:32:24:360PM,Jul  8 2020 10:58:50:000AM
4917241,Cartersville Farm & Art Market,2168 Cartersville Road,,Cartersville,Cumberland,Virginia,23027,8043149141,www.rvagriculture.org,,Cartersville,Virginia,,manager@rvagriculture.org,Farmers Market,May 27 2020 12:44:03:223PM,Jun  4 2020 12:56:32:000PM
3624081,Cascades Farmers Market,21060 Whitfield Place,Senior Center Parking Lot,Sterling,Loudoun,Virginia,20165,5404548089,,,Sterling,Virginia,,,Farmers Market,Jul 23 2015 08:46:40:250AM,Apr  1 2020 01:10:49:000PM
4915548,Cascades Sunday Farmers Market (Year-round),21060 Whitfield Place,,Sterling,Loudoun,Virginia,20165,540-454-8089,loudounfarmersmarkets.org,,Sterling,Virginia,,rowens.lvhmc@yahoo.com,Farmers Market,Mar 10 2019 04:33:23:103AM,Jul 16 2019 02:21:10:000PM
4914331,Charlottesville City Market,100 Water St.,,Charlottesville,Charlottesville,Virginia,22902,4349703371,www.charlottesville.org/citymarket,,Charlottesville,Virginia,,citymarket@charlottesville.org,Farmers Market,Apr 17 2018 09:26:21:837PM,Apr  2 2019 10:14:10:000AM
4915315,Charlottesville City Market,100 Water Street,,Charlottesville,Charlottesville,Virginia,22902,434-970-3371,www.charlottesville.org/citymarket,,Charlottesville,Virginia,,citymarket@charlottesville.org,Farmers Market,Mar 10 2019 04:27:21:833AM,Mar 10 2019 04:27:21:833AM
4913337,Chesapeake Farmer's Market,900 City Park Drive,120 Reservation Road and 4437 Portsmouth Blvd.,Chesapeake,Chesapeake,Virginia,23322,7573826348,,,Chesapeake,Virginia,,watsonL@vt.edu,Farmers Market,Mar  2 2017 08:29:12:783AM,Mar  2 2017 08:29:14:000AM
3624090,Chesterfield County Farmer's Market,(next to) 6701 Mimms Loop,,Chesterfield,Chesterfield,Virginia,23832,8043346811,,,Chesterfield,Virginia,,DebKoller100@gmail.com,Farmers Market,Jul 24 2015 05:39:53:773AM,Jul 24 2015 05:46:12:000AM
4913872,Chippokes Creek Farm,533 Arrow Reed Road,,Surry,Surry,Virginia,23883,7578131922,,,Surry,Virginia,,chippokescreekfarm@gmail.com,"Farmer/Rancher, Farmers Market",Sep 12 2017 01:11:20:130PM,Sep 12 2017 07:54:15:000PM
419892,Clarke County Farmers' Market (Summer Market),100 S Church St,,Berryville,Clarke,Virginia,22611,5409554463,www.clarkecountyfarmersmarket.com/,,Berryville,Virginia,,manager@clarkecountyfarmersmarket.com,Farmers Market,Mar 27 2009 11:23:52:010AM,Apr  9 2020 11:38:15:000AM
419893,Clarke County Farmers' Market (Winter Market),S. Church Street beside Dollar General,,Berryville,Clarke,Virginia,22611,5409554463,www.clarkecountyfarmersmarket.com/farmers_winter_vendors.html,,Berryville,Virginia,,,Farmers Market,Mar 27 2009 11:28:37:210AM,Jun 10 2010 01:01:59:000PM
4917307,Clays Garden Center & Farm Market,1301 S Main St,,Blackstone,Nottoway,Virginia,23824,4342925603,http://Http://www.claysgarden.com,,Blackstone,Virginia,,clayslandscape@gmail.com,Farmers Market,Jun 10 2020 12:41:39:550AM,Jun  9 2020 07:41:46:000AM
4916561,Collie Hollow,202 Estaline Valley Rd,,Craigsville,Augusta,Virginia,24430,15402550997,,,Craigsville,Virginia,,hammyskillet@gmail.com,Farmers Market,Mar 31 2020 12:50:41:933PM,Mar 31 2020 07:50:48:000AM
419891,Columbia Pike Farmers Market,S. Walter Reed Drive & Columbia Pike,,Arlington,Arlington,Virginia,22204,7038922776,www.columbiapikepartnership.com/MARKET/index_E.html,,Arlington,Virginia,,,Farmers Market,Mar 27 2009 11:12:27:153AM,May 21 2010 11:35:23:000AM
419895,Community Farmers Market,10501 Main Street,,Fairfax,Fairfax City,Virginia,22030,5404398326,www.FairfaxSaturdayMarket.com,,Fairfax,Virginia,,,Farmers Market,Mar 27 2009 12:16:45:987PM,May 21 2010 11:45:47:000AM
3624253,Community Market of Blacksburg,PO Box 561,1411 South Main St.,Blacksburg,Montgomery,Virginia,24063,5408181220,,,Blacksburg,Virginia,,communityfarmersmarket@live.com,Farmers Market,Sep  3 2015 11:37:45:533AM,Nov 20 2015 09:38:43:000PM
4915319,Crozet Farmers Market,1156 Crozet Avenue,,Crozet,Albemarle,Virginia,22932,434-823-1092,,,Crozet,Virginia,,aminutolo@embarqmail.com,Farmers Market,Mar 10 2019 04:27:27:967AM,Mar 10 2019 04:27:27:967AM
4915191,Culpeper Downtown Farmers Market,E. Davis Street,,Culpeper,Culpeper,Virginia,22701,5408254416,www.culpeperdowntown.com,,Culpeper,Virginia,,crievents@culpeperdowntown.com,Farmers Market,Mar 10 2019 04:24:20:013AM,Apr 21 2019 05:29:12:000PM
419894,Culpeper Farmers Market,Stevens & Main Street,,Culpeper,Culpeper,Virginia,22701,5404398326,,,Culpeper,Virginia,,,Farmers Market,Mar 27 2009 11:56:30:567AM,May 21 2010 11:43:29:000AM
419925,Dale City Farmers Market,Dale Boulevard,,Woodbridge,Prince William,Virginia,22193,7036707112,,,Woodbridge,Virginia,,,Farmers Market,Mar 27 2009 03:37:45:197PM,May 24 2010 08:45:53:000AM
3624121,Danville Farmers' Market,629 Craghead Street,,Danville,Danville,Virginia,24541,4347978961,,,Danville,Virginia,,porziks@danvilleva.gov,Farmers Market,Jul 30 2015 10:03:36:130AM,Jul 30 2015 01:09:30:000PM
419888,Del Ray Farmers' Market,E. Oxford & Mount Vernon Avenue,,Alexandria,Alexandria,Virginia,22301,7036832570,,,Alexandria,Virginia,,,Farmers Market,Mar 27 2009 10:44:34:767AM,May 21 2010 11:30:53:000AM
4914203,"Dorey Farmers Market, Inc.",2999 Darbytown Road,,Henrico,Richmond,Virginia,23231,8045070780,,,Henrico,Virginia,,cappie@doreyparkfarmersmarket.org,Farmers Market,Feb 17 2018 02:20:09:770PM,Apr  1 2020 12:28:51:000PM
3624143,Downtown Roanoke Inc.,213 Market St. SE,The Historic City Market,Roanoke,Roanoke City,Virginia,24011,5403422028,,,Roanoke,Virginia,,ericp@downtownroanoke.org,Farmers Market,Aug  6 2015 08:36:45:620AM,Aug  6 2015 09:16:21:000AM
4916573,Downtown South Boston Farmers Market,300 Broad St,,South Boston,Halifax,Virginia,24592,3365048398,https://www.downtownsobo.com/?link=farmers_market,,South Boston,Virginia,,dtsbfm.mm@gmail.com,Farmers Market,Apr  1 2020 05:42:36:163PM,Apr  1 2020 01:26:10:000PM
4917092,Downtown South Boston Farmers Market,300 Broad Steet,,South Boston,Halifax,Virginia,24592,5404901406,https://downtownsobo.com/?link=farmers_market,,South Boston,Virginia,,dtsbfm.president@gmail.com,Farmers Market,Apr 30 2020 03:20:09:020PM,Apr 30 2020 10:50:26:000AM
4917238,Drakes Branch Farmers Market,RR,,Drakes Branch,Charlotte,Virginia,23937,0,,,Drakes Branch,Virginia,,crewite@hotmail.com,Farmers Market,May 27 2020 11:14:48:963AM,Jun  3 2020 03:54:37:000PM
3624867,Dry Valley Farms,2835 Dry Valley Road,,Radford,Radford,Virginia,24141,5402303078,,,Radford,Virginia,,staceyg.phillips@gmail.com,"Farmer/Rancher, Farmers Market, Tourism",Feb 27 2016 01:41:29:200PM,Mar 11 2016 09:33:43:000AM
4915318,Earlysville Farmers Market,4167 Earlysville Road,,Earlysville,Albemarle,Virginia,22936,434-942-8034,earlysvillefarmersmarket.wordpress.com,,Earlysville,Virginia,,evillefarmersmkt@embarqmail.com,Farmers Market,Mar 10 2019 04:27:26:473AM,Mar 10 2019 04:27:26:473AM
4915186,Eastern Orange Farmers Market,32301 Constitution Hwy,,Locust Grove,Orange,Virginia,22508,4342274561,easternorangefarmersmarket.blogspot.com/,,Locust Grove,Virginia,,easternorangefarmersmarket@gmail.com,Farmers Market,Mar 10 2019 04:24:12:550AM,Jun 27 2019 02:03:34:000PM
4913922,Exit 40 Farmers Market,15225 Heathcote Blvd,,Haymarket,Prince William,Virginia,20169,7037950208,exit40farmersmarket.com,,Haymarket,Virginia,,elizabeth@farmtotablesolutions.com,Farmers Market,Sep 28 2017 02:29:08:140PM,Apr 21 2019 05:33:19:000PM
4916827,Fair Lawn Farm,3118 Mill Gap Rd.,,Monterey,Highland,Virginia,24465,5404683094,comehometofairlawnfarm.com,,Monterey,Virginia,,tduff@htcnet.org,"Farmers Market, Tourism",Apr 11 2020 02:36:07:187PM,Apr 15 2020 11:26:16:000AM
419899,Fairfax Farmers Market,3730 Old Lee Highway,,Fairfax,Fairfax City,Virginia,22030,7036420128,www.fairfaxcounty.gov/parks/farm-mkt.htm,,Fairfax,Virginia,,,Farmers Market,Mar 27 2009 12:37:15:643PM,May 21 2010 12:51:55:000PM
4914077,Fall Line Farms and Local Roots,P.O. Box 639,"Goochland, Va 23063",Goochland,Goochland,Virginia,23063,8048782166,https://flflr.luluslocalfood.com,,Goochland,Virginia,,,Farmers Market,Dec 28 2017 12:18:07:783PM,Dec 28 2017 12:26:55:000PM
3623993,Falls Church Farmers Market,300 Park Avenue,,Falls Church,Fairfax,Virginia,22046,7032485027,,,Falls Church,Virginia,,hherman@fallschurchva.gov,Farmers Market,Jul  2 2015 10:14:05:127AM,Jul  2 2015 10:20:45:000AM
3624223,Farmers in the Park,300 Meade Ave,,Charlottesville,Charlottesville,Virginia,22902,4349703371,,,Charlottesville,Virginia,,,Farmers Market,Aug 31 2015 11:16:59:620AM,Apr 17 2018 04:18:34:000PM
4915314,Farmers in the Park,300 Meade Avenue,,Charlottesville,Charlottesville,Virginia,22903,434-970-3371,www.charlottesvillecitymarket.com,,Charlottesville,Virginia,,citymarket@charlottesville.org,Farmers Market,Mar 10 2019 04:27:20:350AM,Mar 10 2019 04:27:20:350AM
3624098,Farmers Market at New Highland Baptist Church,9200 New Ashcake Road,,Mechanicsville,Hanover,Virginia,23116,8045509601,,,Mechanicsville,Virginia,,farmersmarket@newhighlandbaptist.org,Farmers Market,Jul 25 2015 03:22:49:097PM,Jul  6 2017 08:01:40:000PM
4917089,Farmville Community Marketplace,213 North Street,,Farmville,Prince Edward,Virginia,23901,4346100404,farmvilleva.com/community/calendar/events/farmers-market/?fbclid=IwAR2eudSltzMX3o8hhbiWE8sKi,,Farmville,Virginia,,bob@stratmoorefarms.com,Farmers Market,Apr 30 2020 02:42:26:090PM,May 28 2020 09:54:56:000AM
4913423,"Field to Table, Inc.",P. O. Box 5948,,Arlington,Arlington,Virginia,22205,7034058232,,,Arlington,Virginia,,robswennesFTT@outlook.com,Farmers Market,Mar 24 2017 08:21:01:730PM,Mar 24 2017 08:21:02:000AM
4916874,Fireside Farm,170 Oakley Farm Ln.,,Warm Springs,Bath,Virginia,24484,5406915999,fireside.farm.com,,Warm Springs,Virginia,,firesidefarm.contact@gmail.com,"Farmer/Rancher, Farmers Market",Apr 11 2020 02:36:57:120PM,Apr 14 2020 10:39:19:000AM
3624261,Five Points Community Farm Market,2500 Church St. A,,Norfolk,Norfolk,Virginia,23504,7576400300,,,Norfolk,Virginia,,5ptsfarmarket@gmail.com,"Buyer, Eating &amp; Drinking Place, Farmers Market, Food Retailer",Sep  4 2015 10:21:54:413AM,Sep  4 2015 11:03:58:000AM
4914197,Floyd Food Hub,233 Gracie Lane,,Floyd,Floyd,Virginia,24091,5403926112,,,Floyd,Virginia,,office.floydfoodhub@gmail.com,Farmers Market,Feb 15 2018 11:55:01:120AM,Feb 15 2018 11:59:09:000AM
4915312,Fluvanna Farmers Market,1735 Thomas Jefferson Pkwy,,Palmyra,Fluvanna,Virginia,22963,434-295-8361,www.fluvannafarmersmarket.web.com,,Palmyra,Virginia,,fluvannafarmersmarket@gmail.com,Farmers Market,Mar 10 2019 04:27:17:583AM,Mar 10 2019 04:27:17:583AM
4913551,Forest Farmers Market,P.O. Box 2036,,Forest,Bedford,Virginia,24551,4346655475,,,Forest,Virginia,,Forestfarmersmarket221@gmail.com,Farmers Market,Apr 28 2017 08:49:22:150AM,Apr 28 2017 08:49:23:000AM
4915317,Forest Lakes Farmers Market,1650 Ashwood Boulevard,,Charlottesville,Albemarle,Virginia,22911,434-531-2733,,,Charlottesville,Virginia,,forestlakesmarket@gmail.com,Farmers Market,Mar 10 2019 04:27:24:673AM,Mar 10 2019 04:27:24:673AM
4913469,Four Mile Run Farmers & Artisans Market,4109 Mt Vernon Avenue,"The Four Mile Run Farmers & Artisans Market brings fresh, nutritious food to people of all income le",Alexandria,Alexandria,Virginia,22305,8044647861,http://www.4MRMarket.org,,Alexandria,Virginia,,4MRMarket@arlandria.org,Farmers Market,Apr  3 2017 07:45:56:080PM,Apr  3 2017 09:07:30:000PM
3624337,Fredericksburg City Farmers Market,408 Canal St,Hurkamp Park at the corner of William and Prince Edward Streets,Fredericksburg,Fredericksburg,Virginia,22401,5403721086,,,Fredericksburg,Virginia,,marketmanager@fredericksburgva.gov,Farmers Market,Sep 25 2015 05:53:15:553AM,Sep 25 2015 05:56:54:000AM
419915,Freight Station Farmers Market,315 W. Boscawen Street,,Winchester,Winchester,Virginia,22601,3042293457,freightstationfarmersmarket.com/?fbclid=IwAR3-iNaqQAm8VhiY1S1ZgBbCUCP18efTxGnHNuWPAVK-2XZgXEP,,Winchester,Virginia,,mayfairfarm.nowak@gmail.com,Farmers Market,Mar 27 2009 02:22:06:703PM,Apr  9 2020 11:52:33:000AM
4913765,FRESHFARM Ballston,901 North Taylor Street,,Arlington,Arlington,Virginia,22203,2023628889,,,Arlington,Virginia,,,Farmers Market,Jul 31 2017 12:06:17:060PM,Jul 31 2017 12:07:48:000PM
4913763,FRESHFARM Crystal City,1965 Crystal Drive,,Arlington,Arlington,Virginia,22202,2023628889,,,Arlington,Virginia,,,Farmers Market,Jul 31 2017 11:38:56:040AM,Jul 31 2017 12:09:19:000PM
4913764,FRESHFARM Rosslyn,1201 Wilson Blvd,,Arlington,Arlington,Virginia,22209,2023628889,,,Arlington,Virginia,,,Farmers Market,Jul 31 2017 11:47:10:670AM,Jul 31 2017 12:09:39:000PM
419900,Frying Pay Park Farmers Market,2709 W. Ox Road,,Herndon,Fairfax,Virginia,20171,7036420128,www.fairfaxcounty.gov/parks/farm-mkt.htm,,Herndon,Virginia,,,Farmers Market,Mar 27 2009 12:39:42:200PM,May 21 2010 01:20:21:000PM
4916826,Ginseng Mountain Farm & Store,6359 Potomac River Rd.,,Blue Grass,Highland,Virginia,24413,5404745137,ginsengmountain.com,,Blue Grass,Virginia,,ginseng@htcnet.org,"Farmer/Rancher, Farmers Market",Apr 11 2020 02:36:06:120PM,Apr 15 2020 11:30:29:000AM
4916627,Going for Green Farm,Merchants Hope Road,,Prince George,Virginia Beach,Virginia,23875,2762332475,,PO Box 2393,Prince George,Virginia,23875,goingforgreenfarm@gmail.com,"Farmer/Rancher, Farmers Market",Apr  7 2020 04:54:07:957PM,Apr  7 2020 12:17:55:000PM
419914,Goldvein Farmers Market,"Gold Dust Pkwy, Monroe Park",,Goldvein,Fauquier,Virginia,22720,5407525330,,,Goldvein,Virginia,,,Farmers Market,Mar 27 2009 02:06:56:140PM,May 24 2010 08:35:42:000AM
3624102,Goochland Fairground Farmers Market,2650 Fairground Road,,Goochland,Goochland,Virginia,23063,8043149141,rvagriculture.org/goochland-farmers-market/,,Goochland,Virginia,,,Farmers Market,Jul 27 2015 03:18:26:877PM,Feb 19 2020 11:44:44:000AM
4913389,Goochland Farmers Market - Courthouse,1889 Sandy Hook Road,,Goochland,Goochland,Virginia,23063,8043149141,http://www.rvagriculture.org,,Goochland,Virginia,,,Farmers Market,Mar 21 2017 12:07:27:723PM,Feb 19 2020 10:42:46:000AM
4913803,Grandin Village Farmers Market,2080 Westover Ave,,Roanoke,Roanoke City,Virginia,24015,5406321360,,,Roanoke,Virginia,,sam@leapforlocalfood.org,Farmers Market,Aug  9 2017 02:23:47:013PM,Aug  9 2017 02:23:43:000AM
4915311,Greene Farmers Market,40 Celt Road,,Stanardsville,Greene,Virginia,22973,4349856663,www.exploregreene.com/farmersmarket,,Stanardsville,Virginia,,greenefarmersmarket@gmail.com,Farmers Market,Mar 10 2019 04:27:16:233AM,Dec 18 2019 03:28:08:000PM
4916047,GTS Farms,14208 Mountain Rd,,Vernon Hill,Halifax,Virginia,24597,8047671830,https://www.gtsrarms.com,,Vernon Hill,Virginia,,,Farmers Market,Sep  5 2019 10:42:53:763AM,Sep  5 2019 05:48:46:000AM
3623878,GTS Reality Farm,751 Canterbury Dr,,Halifax,Halifax,Virginia,24558,8044475540,http://greenchef12.wix.com/gts-farm,,Halifax,Virginia,,greenchef12@gmail.com,Farmers Market,Jun  8 2015 02:11:23:650PM,Sep  5 2019 05:28:31:000AM
4914213,Hampton Blvd Farmers Market,7400 Hampton Blvd,,Norfolk,Norfolk,Virginia,23505,7579615552,,,Norfolk,Virginia,,hamptonblvdfarmersmarket@gmail.com,Farmers Market,Feb 24 2018 11:06:57:267AM,Feb 24 2018 11:13:50:000AM
3624033,Harrisonburg Farmers Market,228 South Liberty St,PO Box 669,Harrisonburg,Harrisonburg,Virginia,22801,5404763377,www.harrisonburgfarmersmarket.com,,Harrisonburg,Virginia,,hbfarmersmarket@gmail.com,Farmers Market,Jul 13 2015 10:41:05:460AM,Apr  9 2020 11:54:40:000AM
419926,Haymarket Farmers Market,15025 Washington Street,,Haymarket,Prince William,Virginia,20169,7037544816,,,Haymarket,Virginia,,,Farmers Market,Mar 27 2009 03:52:16:500PM,May 24 2010 08:46:42:000AM
3624086,Haymarket Thursday Afternoon Market,16015 John Marshall Hwy,The Farm at Broad Run,Broad Run,Fauquier,Virginia,20137,5037582093,,,Broad Run,Virginia,,haymarkettam@gmail.com,Farmers Market,Jul 23 2015 09:13:22:890AM,Jul 24 2015 08:18:24:000AM
419901,Herndon Farmers Market,777 Lynn Street,,Herndon,Fairfax,Virginia,20170,7036420128,www.fairfaxcounty.gov/parks/farm-mkt.htm,,Herndon,Virginia,,,Farmers Market,Mar 27 2009 12:43:24:463PM,May 21 2010 01:27:16:000PM
4914350,Highland Farmers' Market,61 Highland Center Drive,,Monterey,Highland,Virginia,24465,5404681922,www.thehighlandcenter.org/farmers-market,,Monterey,Virginia,,farmersmarket@htcnet.org,Farmers Market,Apr 25 2018 12:40:47:023PM,Apr  9 2020 11:55:16:000AM
4913854,His Childs bakery,8099 Baxter lane,,Singers Glen,Rockingham,Virginia,22850,5408206614,,,Singers Glen,Virginia,,,Farmers Market,Aug 28 2017 09:03:24:160PM,Apr 19 2018 07:52:25:000AM
3624224,Huguenot-Robious Farmers Market @ The Great Big Greenhouse,2051 Huguenot Road,,Richmond,Richmond City,Virginia,23235,8043201317,,,Richmond,Virginia,,bonnie@greatbiggreenhouse.com,Farmers Market,Aug 31 2015 11:36:18:220AM,Sep  1 2015 10:09:39:000AM
3624767,Ikenberry Orchards,2557 Roanoke Road,P.O. Box 569,Daleville,Botetourt,Virginia,24083,5409922448,www.ikenberryorchards.com/,,Daleville,Virginia,,avaike@ntelos.net,"Buyer, Farmers Market, Food Retailer, Tourism, Wholesaler",Feb  1 2016 10:35:58:710AM,Feb  1 2016 12:58:39:000PM
3624225,Independence Farmers Market,the intersection of HWY 21 and 58,,Independence,Grayson,Virginia,24348,2767680597,,,Independence,Virginia,,independencefarmersmarket@gmail.com,"Eating &amp; Drinking Place, Farmers Market, Tourism",Aug 31 2015 11:36:18:770AM,Mar  8 2016 04:28:36:000PM
3624089,Irvington Farmers Market,P O Box 383,,Irvington,Lancaster,Virginia,22480,8044800697,,,Irvington,Virginia,,irvingtonmarket@yahoo.com,Farmers Market,Jul 23 2015 01:15:29:087PM,Jul 23 2015 01:18:50:000AM
3624072,Jenkins Orchards,355 Yancey Rd,,Sperryville,Rappahannock,Virginia,22749,5409878192,,,Sperryville,Virginia,,jenkinsorchards@gmail.com,"Farmer/Rancher, Farmers Market, Wholesaler",Jul 21 2015 08:34:54:020PM,Jul 25 2015 08:20:28:000PM
3624058,Keenbell Farm,18437 Vontay Rd.,,Rockville,Hanover,Virginia,23146,8047670530,,,Rockville,Virginia,,keenbellfarm@gmail.com,"Farmer/Rancher, Farmers Market, Food Retailer, Processor/Packing Shed, Tourism, Wholesaler",Jul 17 2015 09:03:52:047AM,May  1 2018 07:47:31:000AM
4917201,Kenbridge Farmers Market,533 East Fifth Avenue,,Kenbridge,Lunenburg,Virginia,23944,4346762452,www.kenbridgeva.net,PO Box 478,Kenbridge,Virginia,23944,tonymatthews@kenbridgeva.net,Farmers Market,May 20 2020 12:17:41:837PM,Jun 10 2020 01:47:12:000PM
419902,Kingstowne Farmers Market,5800 Kingstowne Center,,Alexandria,Alexandria,Virginia,22315,7036420128,www.fairfaxcounty.gov/parks/farm-mkt.htm,,Alexandria,Virginia,,,Farmers Market,Mar 27 2009 12:48:03:390PM,May 21 2010 01:48:20:000PM
3624222,"La Milpa,  Mexican Restaurant & Market",6925 Hull Street Rd,,Chesterfield,Chesterfield,Virginia,23224,8042763391,,,Chesterfield,Virginia,,lamilpaonline@gmail.com,"Buyer, Eating &amp; Drinking Place, Farmers Market, Food Retailer",Aug 31 2015 11:05:53:920AM,Aug 31 2015 11:10:53:000AM
3624044,Le Gateau de Leveque,14703 Corner Post Pl,,Haymarket,Prince William,Virginia,20169,5714226467,,,Haymarket,Virginia,,yrleveque@hotmail.com,Farmers Market,Jul 15 2015 09:50:50:520AM,Jul 15 2015 09:50:50:520AM
3624083,Leesburg Saturday Market,Virginia Village Shopping Center,Catoctin Circle SE,Leesburg,Loudoun,Virginia,20175,5404548089,http://www.loudounfarmersmarkets.org,,Leesburg,Virginia,,,Farmers Market,Jul 23 2015 08:56:13:970AM,Apr  1 2020 01:10:49:000PM
4915547,Leesburg Saturday Market (Year-round),Catoctin Circle SE,,Leesburg,Loudoun,Virginia,20175,540-454-8089,loudounfarmersmarkets.org,,Leesburg,Virginia,,rowens.lvhmc@yahoo.com,Farmers Market,Mar 10 2019 04:33:21:780AM,Mar 10 2019 04:33:21:780AM
3624084,Leesburg Wednesday Market,Virginia Village Shopping Center,Catoctin Circle SE,Leesburg,Loudoun,Virginia,20175,5404548089,,,Leesburg,Virginia,,,Farmers Market,Jul 23 2015 09:00:28:900AM,Apr  1 2020 01:10:49:000PM
4916802,Lexington Farmers Market,"Lexington Presbyterian Church, 120 S Main St.",,Lexington,Rockbridge,Virginia,24450,5404602516,lexvafm.wixsite.com/2018,,Lexington,Virginia,,mitch@paradoxfarm.org,Farmers Market,Apr 11 2020 02:35:41:247PM,Apr 15 2020 03:27:49:000PM
4914398,Long Family Markets,36 Fresh Water Drive,,Fredericksburg,Fredericksburg,Virginia,22405,5406028541,,,Fredericksburg,Virginia,,longfarmersmarket@gmail.com,Farmers Market,May 18 2018 09:25:11:577AM,May 18 2018 07:31:46:000AM
3624226,Long Sunday Market,163 Stafordboro Boulevard,,Stafford,Stafford,Virginia,22556,5406028541,www.longfamilymarkets.com/?fbclid=IwAR17Db2vS43rLAhZ1rAZXTRJAXQ1EtWc_j6dYGuXocCRufEqghdLvph2,,Stafford,Virginia,,longfamilymarkets@gmail.com,"Eating &amp; Drinking Place, Farmer/Rancher, Farmers Market, Food Retailer",Aug 31 2015 11:49:11:067AM,Nov  5 2019 08:45:42:000AM
419908,Lorton Farmers Market,8990 Lorton Station Blvd.,,Lorton,Fairfax,Virginia,22079,7036420128,www.fairfaxcounty.gov/parks/farm-mkt.htm,,Lorton,Virginia,,,Farmers Market,Mar 27 2009 01:35:40:583PM,May 24 2010 08:30:29:000AM
4915549,Loudoun Station Saturday Farmers Market,43800 Central Station Dr,,Ashburn,Loudoun,Virginia,20147,540-454-8089,loudounfarmersmarkets.org,,Ashburn,Virginia,,rowens.LVHMC@yahoo.com,Farmers Market,Mar 10 2019 04:33:24:490AM,Mar 10 2019 04:33:24:490AM
419919,Lovettsville Farmers Market,16 S. Berlin Pike,,Lovettsville,Loudoun,Virginia,20180,,www.loudounfarmersmarkets.org/Lovettsville.php,,Lovettsville,Virginia,,,Farmers Market,Mar 27 2009 02:44:45:090PM,May 24 2010 08:40:16:000AM
4916816,Luray/Page Farmers Market,Mechanic St.,,Luray,Page,Virginia,22835,0,,,Luray,Virginia,,lurayfarmersmarket@gmail.com,Farmers Market,Apr 11 2020 02:35:55:597PM,Apr 20 2020 12:13:45:000PM
3624812,Madison County Farmers Market,2 South Main Street,,Madison,Madison,Virginia,22727,5409486881,,,Madison,Virginia,,madfarmers13@gmail.com,Farmers Market,Feb 11 2016 04:17:11:037PM,Feb 12 2016 09:28:50:000AM
4917043,Madison County Farmers' Market,PO Box 10,"Hoover Ridge Park, Fairgrounds Rd,",Madison,Madison,Virginia,22727,5404071424,www.madisonfarmersmarket.info/,,Madison,Virginia,,mfhutch3@vabb.com,Farmers Market,Apr 26 2020 03:34:05:130PM,Apr 27 2020 03:03:58:000PM
3624101,Manakin Market,68 Broad Street Road,,Manakin,Goochland,Virginia,23103,8043149141,,,Manakin,Virginia,,manager@rvagriculture.org,"Farmers Market, Tourism",Jul 27 2015 03:12:07:110PM,Feb 19 2020 10:38:40:000AM
419924,Manassas Farmers Market (Saturday),West Street (parking lot B by Train Depot),,Manassas,Manassas,Virginia,20110,7033616599,media.visitmanassas.org/?p=175,,Manassas,Virginia,,,Farmers Market,Mar 27 2009 03:15:18:210PM,May 24 2010 08:45:06:000AM
419923,Manassas Farmers Market (Thursday),9201 Center Street,,Manassas,Manassas,Virginia,20110,7033616599,media.visitmanassas.org/?p=175,,Manassas,Virginia,,,Farmers Market,Mar 27 2009 03:07:14:070PM,May 24 2010 08:44:10:000AM
419903,McLean Farmers Market,1659 Chain Bridge Road,,McLean,Fairfax,Virginia,22101,7036420128,www.fairfaxcounty.gov/parks/farm-mkt.htm,,McLean,Virginia,,,Farmers Market,Mar 27 2009 12:50:21:630PM,May 21 2010 01:53:13:000PM
3624136,Meadows Farms Nursery,18455 Brick Church Rd,,Orange,Orange,Virginia,22960,7034738377,meadowsfarms.com/,,Orange,Virginia,,lpearce@meadowsfarms.com,"Eating &amp; Drinking Place, Farmer/Rancher, Farmers Market, Fishery, Wine, Beer, Spirits",Aug  4 2015 10:44:31:980AM,May 23 2019 10:39:09:000AM
4915313,Michie Market: IRC New Roots Farm Stand,2100 Michie Drive,,Charlottesville,Charlottesville,Virginia,22901,4343051230,,,Charlottesville,Virginia,,NewRoots.Cville@rescue.org,Farmers Market,Mar 10 2019 04:27:18:937AM,Apr 18 2019 04:08:43:000PM
4915546,Middleburg Community Farmers Market,105 West Federal Street,,Middleburg,Loudoun,Virginia,20117,540-687-5152,www.middleburgva.gov/mc-farmers-market-1.html,,Middleburg,Virginia,,tstaples@middleburgva.gov,Farmers Market,Mar 10 2019 04:33:20:237AM,Mar 10 2019 04:33:20:237AM
419920,Middleburg Farmers Market,200-408 Stonewall Avenue,,Middleburg,Loudoun,Virginia,20117,,www.loudounfarmersmarkets.org/Middleburg.php,,Middleburg,Virginia,,,Farmers Market,Mar 27 2009 02:48:10:400PM,May 24 2010 08:41:12:000AM
4915310,Mineral Farmers Market,81 Louisa Avenue,,Mineral,Louisa,Virginia,23117,540-854-7626,www.MineralMarket.org,,Mineral,Virginia,,becky@MineralMarket.org,Farmers Market,Mar 10 2019 04:27:14:867AM,Mar 10 2019 04:27:14:867AM
419904,Mount Vernon Farmers Market,2501 Sherwood Hall Lane,,Mount Vernon,Fairfax,Virginia,22306,7036420128,www.fairfaxcounty.gov/parks/farm-mkt.htm,,Mount Vernon,Virginia,,,Farmers Market,Mar 27 2009 01:06:50:307PM,May 21 2010 01:54:29:000PM
4914397,Mowery Orchard LLC,24247 Senedo Road,,Woodstock,Shenandoah,Virginia,22664,5404598645,moweryorchard.com/,,Woodstock,Virginia,,info@moweryorchard.com,"Farmer/Rancher, Farmers Market, Food Retailer",May 17 2018 10:03:45:047AM,Apr  9 2020 12:16:50:000PM
419938,Nelson County Farmers Market,Route 151,,Nellysford,Nelson,Virginia,22958,4342442399,,,Nellysford,Virginia,,,Farmers Market,Mar 30 2009 11:14:51:857AM,May 24 2010 09:16:13:000AM
4915309,Nelson Farmer's Market Co-op,PO Box 622,,Nellysford,Nelson,Virginia,22958,5555555555,nelsonfarmersmarket.com,,Nellysford,Virginia,,nelsonfarmersmarketmanager@gmail.com,Farmers Market,Mar 10 2019 04:27:13:280AM,Apr 17 2019 01:44:02:000PM
4916713,New Market Farmers Market,Municipal Parking Lot (behind Jaliscos),,New Market,Shenandoah,Virginia,22844,5402463800,,,New Market,Virginia,,nmfarmersmkt@gmail.com,Farmers Market,Apr 11 2020 02:34:03:620PM,Apr 19 2020 08:25:05:000AM
4916913,North Augusta Farmers Market,Augusta County Government Center- 18 Government Center Ln.,,Verona,Augusta,Virginia,24482,8406903369,,,Verona,Virginia,,director@projectgrows.org,"Farmers Market, General Member",Apr 11 2020 02:37:38:640PM,Apr 13 2020 12:39:30:000PM
4916989,North Garden Farmers Market,2545 Rural Ridge Ln,,North Garden,Albemarle,Virginia,22959,4343058985,,,North Garden,Virginia,,Schwartzbakes@gmail.com,Farmers Market,Apr 20 2020 02:02:48:167PM,Apr 20 2020 09:08:48:000AM
3624045,Oak Marr Farmers' Market,3200 Jermantown Rd,,Oakton,Fairfax,Virginia,22124,7032816501,www.fairfaxcounty.gov/parks/farmersmarkets/oak-marr,,Oakton,Virginia,,Julia.Deupree@fairfaxcounty.gov,Farmers Market,Jul 15 2015 12:50:32:600PM,Oct 25 2019 08:40:08:000AM
4916852,Old Town Farmers Market,119 N. Loudoun St.,,Winchester,Frederick,Virginia,22601,5405353600,EnjoyOTW.com,,Winchester,Virginia,,otw@winchesterva.gov,Farmers Market,Apr 11 2020 02:36:33:120PM,Apr 14 2020 08:28:15:000PM
4914046,Old Town Winchester Farmers Market,119 N. Loudoun Street,,Winchester,Winchester,Virginia,22601,5405353660,,,Winchester,Virginia,,otw@winchesterva.gov,Farmers Market,Dec  7 2017 03:25:46:653PM,Dec  7 2017 03:25:41:000AM
4914368,Onancock Farmers and Artisans Market,Corner of Market St & Ames St,,Onancock,Accomack,Virginia,23417,7577102028,,,Onancock,Virginia,,onancockmarket@gmail.com,Farmers Market,May  4 2018 01:45:23:947AM,May  3 2018 08:45:33:000AM
3624301,Owen Farm Market,1668 Silver Creek Road,,Danville,Danville,Virginia,24540,4346854123,,,Danville,Virginia,,,"Eating &amp; Drinking Place, Farmers Market",Sep 15 2015 04:17:11:760AM,Sep 15 2015 04:17:11:760AM
3624299,"Owen Farm Tours, LLC",1668 Silver Creek Road,,Danville,Danville,Virginia,24540,4346854123,www.owenfarmtours.com/,,Danville,Virginia,,info@owenfarmtours.com,"Farmer/Rancher, Farmers Market, Tourism",Sep 15 2015 04:10:55:597AM,Jan  3 2020 04:00:38:000PM
3623884,Pearisburg Community Market,1410 Wenonah Ave.,,Pearisburg,Giles,Virginia,24134,5405980470,pearisburgfarmtofork.com,,Pearisburg,Virginia,,harrell@pearisburg.org,"Eating &amp; Drinking Place, Farmers Market, Food Retailer, Tourism",Jun 10 2015 07:38:28:427AM,Jan  3 2020 05:45:30:000PM
4916399,Powhatan Village Farmers Market,3841 Old Buckingham Road,We are on the grounds of Bienvenue,Powhatan,Powhatan,Virginia,23139,8043149141,www.rvagriculture.org,,Powhatan,Virginia,,manager@rvagriculture.org,Farmers Market,Feb 19 2020 05:05:28:280PM,Feb 19 2020 02:37:37:000PM
419921,Purcellville Farmers Market,717 East Main Street,,Purcellville,Loudoun,Virginia,20132,5407518550,www.loudounfarmersmarkets.org/Purcellville.php,,Purcellville,Virginia,,tomatoes@purcellvillefarmersmarket.com,Farmers Market,Mar 27 2009 02:51:52:550PM,Jul 16 2019 12:10:47:000PM
4917039,RC Microgreens,"Blacksburg, Va",,Blacksburg,Montgomery,Virginia,24060,5405701323,http://rcmicrogreens.com,,Blacksburg,Virginia,,rcmicrogreens@gmail.com,Farmers Market,Apr 25 2020 08:30:06:700PM,Apr 25 2020 03:46:34:000PM
4916633,Red Dog Farm,101 Thompson St,,Ashland,Hanover,Virginia,23111,8047797381,,,Ashland,Virginia,,mmrhaynes@gmail.com,Farmers Market,Apr  7 2020 06:35:34:347PM,Apr 27 2020 10:53:09:000AM
419911,Remington Farmers' Market,Main Street,,Remington,Fauquier,Virginia,22734,5404393532,,,Remington,Virginia,,,Farmers Market,Mar 27 2009 01:49:51:440PM,May 24 2010 08:32:55:000AM
419905,Reston Farmers Market,"1609 Washington Plaza, Lake Anne Plaza",,Reston,Fairfax,Virginia,20190,7033189628,www.restonfarmersmarket.com,,Reston,Virginia,,,Farmers Market,Mar 27 2009 01:16:06:637PM,Jun 10 2010 09:49:21:000AM
4913738,Rice's Hotel / Hughlett's Tavern Foundation,73 Monument Place,PO Box 579,Heathsville,Northumberland,Virginia,22473,8045803377,,,Heathsville,Virginia,,info@rhhtfoundationinc.org,Farmers Market,Jul 27 2017 06:55:26:133AM,Jul 27 2017 06:55:21:000AM
4916576,River Street Market,30 River Street,,Petersburg,Petersburg,Virginia,23803,8047202532,http://www.riverstreetmarket.com,,Petersburg,Virginia,,info@riverstreetmarket.com,Farmers Market,Apr  1 2020 05:54:30:510PM,May  5 2020 02:11:54:000PM
3624046,Rockbridge Farmers Market,Virginia Horse Center,Maury River Road,Lexington,Lexington,Virginia,24450,5404636841,,,Lexington,Virginia,,farmersmarket@horsecenter.org,Farmers Market,Jul 15 2015 12:54:14:593PM,Apr  9 2020 12:24:19:000PM
3624144,Salem Farmers Market,3 East Main Street,,Salem,Salem,Virginia,24153,5403754098,,,Salem,Virginia,,farmersmarket@salemva.gov,Farmers Market,Aug  6 2015 08:48:05:593AM,May  2 2017 10:16:31:000AM
4914336,Scottsville Farmers Market,401 Valley St.,125 Fleet St.,Scottsville,Albemarle,Virginia,24590,4342869267,,,Scottsville,Virginia,,market@scottsville.org,Farmers Market,Apr 19 2018 03:26:23:270PM,Apr  1 2020 02:58:02:000PM
4915316,Scottsville Farmers Market,125 Fleet Street,,Scottsville,Albemarle,Virginia,24590,434-286-9267,http://www.scottsvillefarmersmarket.org/,,Scottsville,Virginia,,market@scottsville.org,Farmers Market,Mar 10 2019 04:27:23:313AM,Mar 10 2019 04:27:23:313AM
4916850,Shen-Val Farm Market,2180 Fairfax Pike,,White Post,Frederick,Virginia,22663,5408680366,shenval.business.site/,,White Post,Virginia,,shenvalgs@gmail.com,Farmers Market,Apr 11 2020 02:36:30:980PM,Apr 14 2020 08:38:54:000PM
4913831,Shenandoah Produce,5169 Scotts Ford Rd.,,Mount Crawford,Rockingham,Virginia,22841,4342933832,shenandoahproducefarms.com/,,Mount Crawford,Virginia,,shenandoahproduce@gmail.com,"Farmers Market, Food Retailer",Aug 16 2017 05:42:23:093AM,Apr 29 2020 07:14:04:000AM
4916023,Small Business Administration,"400 North 8th Street, Suite 1150",,Richmond,Richmond City,Virginia,23219,8047712400,https://sba.gov/offices/district/va/richmond,,Richmond,Virginia,,kiana.hamilton@sba.gov,Farmers Market,Aug 27 2019 03:09:39:820PM,Sep 11 2019 06:40:11:000AM
3624522,Smithfield Farmers Market,115 Main Street,,Smithfield,Isle of Wight,Virginia,23430,7573753031,,,Smithfield,Virginia,,cketcham@isleofwightus.net,Farmers Market,Nov 18 2015 01:57:32:310PM,Nov 18 2015 01:57:32:310PM
4916712,South Street Barn Market,411 S. Muhlenberg St.,,Woodstock,Shenandoah,Virginia,22664,5403253768,southstreetbarnmarket.com,,Woodstock,Virginia,,southstreetbarnmarket@gmail.com,Farmers Market,Apr 11 2020 02:34:02:650PM,Apr 19 2020 08:27:52:000AM
4914302,Spotsylvania Farmers Market,PO Box 95,,Spotsylvania,Spotsylvania,Virginia,88559,5404191746,,,Spotsylvania,Virginia,,spotsylvaniafarmersmarket@gmail.com,Farmers Market,Apr  1 2018 02:27:41:690PM,Apr  1 2018 09:37:38:000AM
4916912,Staunton Farmers Market,The Wharf Parking Lot,,Staunton,Augusta,Virginia,24402,5404481937,stauntonfarmersmarket.org,,Staunton,Virginia,,stauntonfarmersmarket@gmail.com,Farmers Market,Apr 11 2020 02:37:37:667PM,Apr 13 2020 12:41:28:000PM
4916711,Strasburg Farmers Market,"Strasburg Square, E. King St.",,Strasburg,Shenandoah,Virginia,22657,0,facebook.com/Strasburgfarmersmarket,,Strasburg,Virginia,,strasburgfarmersmarket@gmail.com,Farmers Market,Apr 11 2020 02:34:01:673PM,Apr 19 2020 08:31:40:000AM
3624252,Sugar Grove Farmers Market,5500 Sugar Grove HWY,,Sugar Grove,Smyth,Virginia,24375,2766770111,http://www.sugargroveva.com,,Sugar Grove,Virginia,,admin@sugargroveva.com,Farmers Market,Sep  3 2015 10:52:39:100AM,Mar  5 2017 05:34:31:000PM
3624087,The Carytown Farmers Market,3201 West Cary Street,,Richmond,Richmond City,Virginia,23221,8042411562,,,Richmond,Virginia,,kim@carytownmarket.com,Farmers Market,Jul 23 2015 10:15:58:560AM,Jul 23 2015 10:16:48:000AM
3624272,The Surry Farmers Market,45 School Street,,Surry,Surry,Virginia,23883,7572945271,,,Surry,Virginia,,pbernshausen@surrycountyva.gov,"Farmers Market, Tourism",Sep  9 2015 11:18:46:110AM,Sep  9 2015 11:41:57:000AM
4913746,Town of Halifax Farmers Market,209 South Main Street,P.O. Box 627,Halifax,Halifax,Virginia,24558,4344762343,,,Halifax,Virginia,,townoffice@townofhalifax.com,Farmers Market,Jul 27 2017 02:25:41:400PM,Apr 29 2020 07:06:11:000PM
4913542,Town of Hillsville Farmers Market,410 N. Main St,P.O. Box 545,Hillsville,Carroll,Virginia,24343,2767282128,,,Hillsville,Virginia,,Tohfarmersmarket@townofhillsville.com,Farmers Market,Apr 26 2017 11:38:39:437AM,Apr  9 2020 08:22:20:000AM
4914346,Town of Hillsville Farmers Market,405 N. Main St.,,Hillsville,Carroll,Virginia,24343,2767282128,,,Hillsville,Virginia,,miss.wva@hotmail.com,Farmers Market,Apr 24 2018 12:55:37:243PM,Apr 24 2018 08:01:44:000AM
3619151,Umami Gardner,13478 Devils Three Jump Rd,,Milford,Caroline,Virginia,22514,8043329379,,,Milford,Virginia,,gfrider02@yahoo.com,"Farmer/Rancher, Farmers Market",Jan 20 2015 11:43:00:013AM,Jan 20 2015 11:48:22:000AM
419907,Vienna Farmers Market,131 Church Street NE,,Vienna,Fairfax,Virginia,22180,7032811255,viennafarmersmarket.com/,,Vienna,Virginia,,,Farmers Market,Mar 27 2009 01:29:12:723PM,May 24 2010 08:29:34:000AM
419906,Vienna/Oakton Farmers Market,3200 Jermantown Road,,Vienna,Fairfax,Virginia,22124,7036420128,www.fairfaxcounty.gov/parks/farm-mkt.htm,,Vienna,Virginia,,,Farmers Market,Mar 27 2009 01:24:13:783PM,May 21 2010 01:57:09:000PM
3624026,Virginia Beach Farmers Market,3640 Dam Neck Rd,,Virginia Beach,Virginia Beach,Virginia,23453,7573854388,www.vbgov.com/government/departments/agriculture/farmers-market/Pages/default.aspx,,Virginia Beach,Virginia,,farmmrkt@vbgov.com,"Eating &amp; Drinking Place, Farmers Market, Food Retailer, Tourism",Jul  9 2015 09:00:36:980AM,Dec  3 2019 03:10:17:000PM
419897,Wakefield Farmers Market,8100 Braddock Road,,Annandale,Fairfax,Virginia,22033,7036420128,www.fairfaxcounty.gov/parks/farm-mkt.htm,,Annandale,Virginia,,,Farmers Market,Mar 27 2009 12:27:04:547PM,May 21 2010 12:29:21:000PM
3624112,Wallops Farmers Market,34001 Mill Dam Road,,Wallops Island,Accomack,Virginia,23337,7578242327,https://www.facebook.com/WallopsFarmersMarket,,Wallops Island,Virginia,,shari.a.silbert@nasa.gov,Farmers Market,Jul 28 2015 03:12:46:270PM,Jul 28 2015 03:21:06:000AM
419913,Warrenton Farmers Market (Saturday),5th & Lee Street,,Warrenton,Fauquier,Virginia,20186,5403476267,http://www.warrentonva.gov/visitors/local_attractions/index.php,,Warrenton,Virginia,,kgibson@warrentonva.gov,Farmers Market,Mar 27 2009 02:04:16:087PM,Mar  7 2016 09:44:39:000AM
3623984,Warrenton Farmers Market (Wednesday),500 Hospital Drive,,Warrenton,Fauquier,Virginia,20186,5403476574,http://www.warrentonva.gov/visitors/local_attractions/index.php,,Warrenton,Virginia,,,Farmers Market,Jun 30 2015 01:56:37:663PM,Mar  7 2016 09:44:29:000AM
4915189,Warrenton Saturday Farmers Market,PO Drawer 341,,Warrenton,Fauquier,Virginia,20188,5403472405,www.warrentonva.gov/visitors/local_attractions/index.php,,Warrenton,Virginia,,emelson@warrentonva.gov,Farmers Market,Mar 10 2019 04:24:17:170AM,Apr 23 2019 03:31:51:000PM
4915188,Warrenton Wednesday Farmers Market,800 Waterloo Road,,Warrenton,Fauquier,Virginia,20186,540-347-2405,http://www.warrentonva.gov/visitors/local_attractions/index.php,,Warrenton,Virginia,,Planning@warrentonva.gov,Farmers Market,Mar 10 2019 04:24:15:450AM,Mar 10 2019 04:24:15:450AM
4916911,Waynesboro Farmers Market,215 McElroy St.,,Waynesboro,Waynesboro,Virginia,22980,5039292525,https://www.facebook.com/WboroFM/?epa=SEARCH_BOX,,Waynesboro,Virginia,,director@projectgrows.org,Farmers Market,Apr 11 2020 02:37:36:687PM,Apr 22 2020 10:35:33:000AM
4915544,Wellness Connection Farmers Market,24440 Stone Springs Blvd,,Dulles,Loudoun,Virginia,20166,7033270335,https://www.wellnessconnectionllc.com/farmers-market/,,Dulles,Virginia,,marketmgr@wellnessconnectionllc.com,Farmers Market,Mar 10 2019 04:33:17:253AM,Mar 10 2019 04:33:17:253AM
4916849,West Oaks Farm Market South,4350 Middle Rd.,,Winchester,Frederick,Virginia,22602,5406626622,westoaksfarm-market.com,,Winchester,Virginia,,wofmarket@gmail.com,Farmers Market,Apr 11 2020 02:36:29:907PM,Apr 14 2020 08:43:58:000PM
4913424,Westover Farmers Market,1644 N. McKinley Road,,Arlington,Arlington,Virginia,22205,7034058232,,,Arlington,Virginia,,,Farmers Market,Mar 24 2017 08:32:39:897PM,Mar 24 2017 08:32:40:000AM
4916369,Westwind Flowers,PO Box 133,,Orange,Orange,Virginia,22960,5402229948,https://www.westwindflowers.com/,,Orange,Virginia,,stacey@westwindflowers.com,Farmers Market,Feb  5 2020 07:52:49:730PM,Feb  5 2020 03:20:24:000PM
3623745,Williamsburg Farmers Market,402 W Duke of Gloucester Street,,Williamsburg,Williamsburg,Virginia,23185,7572593768,,,Williamsburg,Virginia,,therner@williamsburgva.gov,Farmers Market,May  6 2015 11:11:11:193AM,Jun 25 2018 10:52:39:000AM
419916,Winchester City Market,Loudoun Street,,Winchester,Winchester,Virginia,22601,5405396303,,,Winchester,Virginia,,,Farmers Market,Mar 27 2009 02:30:10:593PM,May 24 2010 08:37:25:000AM
4916708,Woodbine Farm Market,5199 John Marshall Hwy,,Strasburg,Shenandoah,Virginia,22657,5404652729,woodbinefarmmarket.com,,Strasburg,Virginia,,woodbinemarket@gmail.com,Farmers Market,Apr 11 2020 02:33:58:453PM,Apr 19 2020 08:46:50:000AM
4916767,Woods Edge Farm,8050 Frank Lane Rd.,,Singers Glen,Rockingham,Virginia,22850,5408206494,,,Singers Glen,Virginia,,elainenolt@gmail.com,Farmers Market,Apr 11 2020 02:35:01:727PM,Apr 17 2020 08:24:59:000AM
4917097,Wytheville Farmers Market,210 W. Spring St.,P.O. Box 1618,Wytheville,Wythe,Virginia,24382,2766204095,http://www.wythevillefarmersmarket@live.com,,Wytheville,Virginia,,wythevillefarmersmarket@live.com,Farmers Market,Apr 30 2020 06:48:16:583PM,Apr 30 2020 01:50:02:000AM
